{
  "type": "FeatureCollection",
  "features": [
    {
      "type": "Feature",
      "properties": {
        "norad_id": 43823,
        "name": "GEO-KOMPSAT-2A",
        "group": "weather",
        "lat": -0.02440908327628158,
        "lon": 17.81380107691731,
        "alt_km": 35786.049236187486,
        "timestamp": "2025-12-17T10:52:53.991887+00:00",
        "meta_object_name": "GEO-KOMPSAT-2A",
        "meta_object_id": "2018-100A",
        "meta_epoch": "2025-12-16T07:07:06.206304",
        "meta_mean_motion": 1.00271835,
        "meta_eccentricity": 4.993e-05,
        "meta_inclination": 0.0508,
        "meta_ra_of_asc_node": 132.3973,
        "meta_arg_of_pericenter": 330.4458,
        "meta_mean_anomaly": 217.3998,
        "meta_ephemeris_type": 0,
        "meta_classification_type": "U",
        "meta_norad_cat_id": 43823,
        "meta_element_set_no": 999,
        "meta_rev_at_epoch": 2579,
        "meta_bstar": 0,
        "meta_mean_motion_dot": -3.2e-06,
        "meta_mean_motion_ddot": 0,
        "tle_line1": "1 43823U 18100A   25350.29659961 -.00000320  00000+0  00000+0 0  9996",
        "tle_line2": "2 43823   0.0508 132.3973 0000499 330.4458 217.3998  1.00271835 25791"
      },
      "geometry": {
        "type": "Point",
        "coordinates": [
          17.81380107691731,
          -0.02440908327628158
        ]
      }
    },
    {
      "type": "Feature",
      "properties": {
        "norad_id": 44387,
        "name": "METEOR-M2 2",
        "group": "weather",
        "lat": 49.57860034450979,
        "lon": -39.357779588884284,
        "alt_km": 806.2656130621535,
        "timestamp": "2025-12-17T10:52:53.991899+00:00",
        "meta_object_name": "METEOR-M2 2",
        "meta_object_id": "2019-038A",
        "meta_epoch": "2025-12-17T00:31:47.382816",
        "meta_mean_motion": 14.24293001,
        "meta_eccentricity": 0.00014399,
        "meta_inclination": 98.8968,
        "meta_ra_of_asc_node": 330.8033,
        "meta_arg_of_pericenter": 138.8666,
        "meta_mean_anomaly": 221.2621,
        "meta_ephemeris_type": 0,
        "meta_classification_type": "U",
        "meta_norad_cat_id": 44387,
        "meta_element_set_no": 999,
        "meta_rev_at_epoch": 33536,
        "meta_bstar": 9.842078e-06,
        "meta_mean_motion_dot": -2.3e-07,
        "meta_mean_motion_ddot": 0,
        "tle_line1": "1 44387U 19038A   25351.02207619 -.00000023  00000+0  98421-5 0  9994",
        "tle_line2": "2 44387  98.8968 330.8033 0001439 138.8666 221.2621 14.24293001335363"
      },
      "geometry": {
        "type": "Point",
        "coordinates": [
          -39.357779588884284,
          49.57860034450979
        ]
      }
    },
    {
      "type": "Feature",
      "properties": {
        "norad_id": 47719,
        "name": "ARKTIKA-M 1",
        "group": "weather",
        "lat": 46.704270405764824,
        "lon": -129.03322608227776,
        "alt_km": 24125.92120314247,
        "timestamp": "2025-12-17T10:52:53.991913+00:00",
        "meta_object_name": "ARKTIKA-M 1",
        "meta_object_id": "2021-016A",
        "meta_epoch": "2025-12-16T01:33:46.454400",
        "meta_mean_motion": 2.00630649,
        "meta_eccentricity": 0.72056757,
        "meta_inclination": 63.179,
        "meta_ra_of_asc_node": 83.5626,
        "meta_arg_of_pericenter": 269.1378,
        "meta_mean_anomaly": 15.5886,
        "meta_ephemeris_type": 0,
        "meta_classification_type": "U",
        "meta_norad_cat_id": 47719,
        "meta_element_set_no": 999,
        "meta_rev_at_epoch": 3511,
        "meta_bstar": 0,
        "meta_mean_motion_dot": -1.08e-06,
        "meta_mean_motion_ddot": 0,
        "tle_line1": "1 47719U 21016A   25350.06512100 -.00000108  00000+0  00000+0 0  9996",
        "tle_line2": "2 47719  63.1790  83.5626 7205675 269.1378  15.5886  2.00630649 35117"
      },
      "geometry": {
        "type": "Point",
        "coordinates": [
          -129.03322608227776,
          46.704270405764824
        ]
      }
    },
    {
      "type": "Feature",
      "properties": {
        "norad_id": 49008,
        "name": "FENGYUN 3E",
        "group": "weather",
        "lat": -63.70127793579597,
        "lon": 10.071796015331117,
        "alt_km": 832.7070972432275,
        "timestamp": "2025-12-17T10:52:53.991925+00:00",
        "meta_object_name": "FENGYUN 3E",
        "meta_object_id": "2021-062A",
        "meta_epoch": "2025-12-16T23:20:57.017760",
        "meta_mean_motion": 14.19881381,
        "meta_eccentricity": 6.382e-05,
        "meta_inclination": 98.7477,
        "meta_ra_of_asc_node": 351.444,
        "meta_arg_of_pericenter": 234.3856,
        "meta_mean_anomaly": 125.7261,
        "meta_ephemeris_type": 0,
        "meta_classification_type": "U",
        "meta_norad_cat_id": 49008,
        "meta_element_set_no": 999,
        "meta_rev_at_epoch": 23072,
        "meta_bstar": 0.00010352903,
        "meta_mean_motion_dot": 1.76e-06,
        "meta_mean_motion_ddot": 0,
        "tle_line1": "1 49008U 21062A   25350.97288215  .00000176  00000+0  10353-3 0  9997",
        "tle_line2": "2 49008  98.7477 351.4440 0000638 234.3856 125.7261 14.19881381230726"
      },
      "geometry": {
        "type": "Point",
        "coordinates": [
          10.071796015331117,
          -63.70127793579597
        ]
      }
    },
    {
      "type": "Feature",
      "properties": {
        "norad_id": 51850,
        "name": "GOES 18",
        "group": "weather",
        "lat": 0.004424007427691781,
        "lon": 112.5469644179043,
        "alt_km": 35787.61889644906,
        "timestamp": "2025-12-17T10:52:53.991937+00:00",
        "meta_object_name": "GOES 18",
        "meta_object_id": "2022-021A",
        "meta_epoch": "2025-12-16T08:28:42.807936",
        "meta_mean_motion": 1.00271857,
        "meta_eccentricity": 4.701e-05,
        "meta_inclination": 0.0125,
        "meta_ra_of_asc_node": 94.3935,
        "meta_arg_of_pericenter": 230.6521,
        "meta_mean_anomaly": 110.3782,
        "meta_ephemeris_type": 0,
        "meta_classification_type": "U",
        "meta_norad_cat_id": 51850,
        "meta_element_set_no": 999,
        "meta_rev_at_epoch": 475,
        "meta_bstar": 0,
        "meta_mean_motion_dot": 1.2e-06,
        "meta_mean_motion_ddot": 0,
        "tle_line1": "1 51850U 22021A   25350.35327324  .00000120  00000+0  00000+0 0  9991",
        "tle_line2": "2 51850   0.0125  94.3935 0000470 230.6521 110.3782  1.00271857  4751"
      },
      "geometry": {
        "type": "Point",
        "coordinates": [
          112.5469644179043,
          0.004424007427691781
        ]
      }
    },
    {
      "type": "Feature",
      "properties": {
        "norad_id": 54234,
        "name": "NOAA 21 (JPSS-2)",
        "group": "weather",
        "lat": -63.372172206391554,
        "lon": -54.41486274024657,
        "alt_km": 834.2031416234222,
        "timestamp": "2025-12-17T10:52:53.991948+00:00",
        "meta_object_name": "NOAA 21 (JPSS-2)",
        "meta_object_id": "2022-150A",
        "meta_epoch": "2025-12-16T23:20:40.464384",
        "meta_mean_motion": 14.19525482,
        "meta_eccentricity": 0.00020432,
        "meta_inclination": 98.7466,
        "meta_ra_of_asc_node": 287.2282,
        "meta_arg_of_pericenter": 29.8355,
        "meta_mean_anomaly": 330.2937,
        "meta_ephemeris_type": 0,
        "meta_classification_type": "U",
        "meta_norad_cat_id": 54234,
        "meta_element_set_no": 999,
        "meta_rev_at_epoch": 16069,
        "meta_bstar": 4.7676344e-05,
        "meta_mean_motion_dot": 5.7e-07,
        "meta_mean_motion_ddot": 0,
        "tle_line1": "1 54234U 22150A   25350.97269056  .00000057  00000+0  47676-4 0  9992",
        "tle_line2": "2 54234  98.7466 287.2282 0002043  29.8355 330.2937 14.19525482160692"
      },
      "geometry": {
        "type": "Point",
        "coordinates": [
          -54.41486274024657,
          -63.372172206391554
        ]
      }
    },
    {
      "type": "Feature",
      "properties": {
        "norad_id": 54743,
        "name": "METEOSAT-12 (MTG-I1)",
        "group": "weather",
        "lat": -0.5140992559232258,
        "lon": -110.75511850547542,
        "alt_km": 35780.30447383601,
        "timestamp": "2025-12-17T10:52:53.991960+00:00",
        "meta_object_name": "METEOSAT-12 (MTG-I1)",
        "meta_object_id": "2022-170C",
        "meta_epoch": "2025-12-16T16:46:48.897984",
        "meta_mean_motion": 1.00269992,
        "meta_eccentricity": 0.00015389,
        "meta_inclination": 0.6909,
        "meta_ra_of_asc_node": 24.2614,
        "meta_arg_of_pericenter": 239.3443,
        "meta_mean_anomaly": 73.397,
        "meta_ephemeris_type": 0,
        "meta_classification_type": "U",
        "meta_norad_cat_id": 54743,
        "meta_element_set_no": 999,
        "meta_rev_at_epoch": 1114,
        "meta_bstar": 0,
        "meta_mean_motion_dot": 1.6e-07,
        "meta_mean_motion_ddot": 0,
        "tle_line1": "1 54743U 22170C   25350.69917706  .00000016  00000+0  00000+0 0  9990",
        "tle_line2": "2 54743   0.6909  24.2614 0001538 239.3443  73.3970  1.00269992 11147"
      },
      "geometry": {
        "type": "Point",
        "coordinates": [
          -110.75511850547542,
          -0.5140992559232258
        ]
      }
    }
  ]
}